{
    "links": {
        "self": "http://www.neowsapp.com/rest/v1/neo/3283947?api_key=iIulBulltgU6a56xZRHN4H3l9WmuAYTsLGpBGhQ2"
    },
    "id": "3283947",
    "neo_reference_id": "3283947",
    "name": "(2005 NG56)",
    "designation": "2005 NG56",
    "nasa_jpl_url": "http://ssd.jpl.nasa.gov/sbdb.cgi?sstr=3283947",
    "absolute_magnitude_h": 22.4,
    "estimated_diameter": {
        "kilometers": {
            "estimated_diameter_min": 0.0880146521,
            "estimated_diameter_max": 0.1968067451
        },
        "meters": {
            "estimated_diameter_min": 88.0146520901,
            "estimated_diameter_max": 196.8067450894
        },
        "miles": {
            "estimated_diameter_min": 0.0546897524,
            "estimated_diameter_max": 0.122290004
        },
        "feet": {
            "estimated_diameter_min": 288.7619911632,
            "estimated_diameter_max": 645.6914415591
        }
    },
    "is_potentially_hazardous_asteroid": false,
    "close_approach_data": [
        {
            "close_approach_date": "2005-07-13",
            "close_approach_date_full": "2005-Jul-13 14:34",
            "epoch_date_close_approach": 1121265240000,
            "relative_velocity": {
                "kilometers_per_second": "13.888885522",
                "kilometers_per_hour": "49999.9878791316",
                "miles_per_hour": "31068.0480241193"
            },
            "miss_distance": {
                "astronomical": "0.0218877785",
                "lunar": "8.5143458365",
                "kilometers": "3274365.042631795",
                "miles": "2034596.092016971"
            },
            "orbiting_body": "Earth"
        }
    ],
    "orbital_data": {
        "orbit_id": "14",
        "orbit_determination_date": "2017-04-06 09:10:45",
        "first_observation_date": "2005-07-11",
        "last_observation_date": "2005-07-19",
        "data_arc_in_days": 8,
        "observations_used": 60,
        "orbit_uncertainty": "7",
        "minimum_orbit_intersection": ".00344082",
        "jupiter_tisserand_invariant": "2.919",
        "epoch_osculation": "2459000.5",
        "eccentricity": ".6562627530324141",
        "semi_major_axis": "2.796661266425765",
        "inclination": "16.88688825080227",
        "ascending_node_longitude": "114.1543444938421",
        "orbital_period": "1708.276742280757",
        "perihelion_distance": ".9613166444220748",
        "perihelion_argument": "150.9223913695463",
        "aphelion_distance": "4.632005888429456",
        "perihelion_time": "2458660.224184095208",
        "mean_anomaly": "71.70927911959603",
        "mean_motion": ".2107386883458686",
        "equinox": "J2000",
        "orbit_class": {
            "orbit_class_type": "APO",
            "orbit_class_description": "Near-Earth asteroid orbits which cross the Earth’s orbit similar to that of 1862 Apollo",
            "orbit_class_range": "a (semi-major axis) > 1.0 AU; q (perihelion) < 1.017 AU"
        }
    },
    "is_sentry_object": false
}